STARLINK-31825          
1 60056U 24112U   26165.22444223 -.00001331  00000+0 -32814-4 0  9991
2 60056  53.1618 349.8055 0001110  87.9611 272.1517 15.30194916113371
STARLINK-31437          
1 60057U 24112V   26165.81860556 -.00003234  00000+0 -97071-4 0  9998
2 60057  53.1602 347.1180 0001274 136.4353 223.6749 15.30211193113464
STARLINK-11181 [DTC]    
1 60059U 24113A   26165.04828282  .00003857  00000+0  36697-4 0  9992
2 60059  53.1602  76.3324 0001314  91.5911 268.5257 15.69698938114699
STARLINK-11176 [DTC]    
1 60060U 24113B   26165.04336991  .00001118  00000+0  14086-4 0  9991
2 60060  53.1601  76.2957 0001139  72.4948 287.6195 15.69717620114697
STARLINK-11167 [DTC]    
1 60061U 24113C   26164.97480500 -.00001240  00000+0 -53783-5 0  9995
2 60061  53.1597  76.5801 0001103  82.4562 277.6581 15.69707796114980
STARLINK-11166 [DTC]    
1 60062U 24113D   26165.47921258  .00004171  00000+0  39212-4 0  9996
2 60062  53.1599  74.0359 0001434  96.4809 263.6372 15.69750309114767
STARLINK-11165 [DTC]    
1 60063U 24113E   26165.02865692 -.00009510  00000+0 -73806-4 0  9998
2 60063  53.1578  76.2014 0000775  61.4478 298.6618 15.69686609114692
STARLINK-11169 [DTC]    
1 60064U 24113F   26165.02375610 -.00000544  00000+0  36390-6 0  9991
2 60064  53.1590  76.1664 0000937 103.9239 256.1883 15.69703734114696
STARLINK-11102 [DTC]    
1 60065U 24113G   26165.01884823 -.00003516  00000+0 -24166-4 0  9991
2 60065  53.1590  76.1343 0001283 131.6091 228.5037 15.69719006114693
STARLINK-11141 [DTC]    
1 60066U 24113H   26165.45962186  .00001262  00000+0  15268-4 0  9996
2 60066  53.1590  73.9025 0001049  87.4480 272.6658 15.69717110114767
STARLINK-11153 [DTC]    
1 60067U 24113J   26165.45480860  .00000768  00000+0  11193-4 0  9994
2 60067  53.1594  74.6020 0001124  72.8438 287.2703 15.69724248114752
STARLINK-11170 [DTC]    
1 60068U 24113K   26165.44991417  .00001037  00000+0  13413-4 0  9996
2 60068  53.1589  74.5711 0001086  77.8327 282.2813 15.69715815114759
STARLINK-11171 [DTC]    
1 60069U 24113L   26165.44501426  .00009054  00000+0  79492-4 0  9990
2 60069  53.1584  74.5416 0001106 117.9033 242.2097 15.69715658114755
STARLINK-11186 [DTC]    
1 60070U 24113M   26165.05809023  .00000728  00000+0  10864-4 0  9990
2 60070  53.1604  76.3930 0001184  82.3553 277.7599 15.69713191115109
STARLINK-11184 [DTC]    
1 60071U 24113N   26165.05320733 -.00004696  00000+0 -33965-4 0  9994
2 60071  53.1586  76.3960 0000785  79.3032 280.8075 15.69683418114691
STARLINK-32032          
1 60077U 24113U   26165.55697068  .00001304  00000+0  49712-4 0  9991
2 60077  53.1603 267.5576 0001051  86.9653 273.1470 15.34414270112089
STARLINK-31441          
1 60091U 24117A   26165.65617013 -.00006108  00000+0 -19407-3 0  9990
2 60091  53.1619 306.6448 0001071  61.2862 298.8246 15.30232808111732
STARLINK-32044          
1 60092U 24117B   26165.63613352  .00005346  00000+0  19266-3 0  9995
2 60092  53.1615 306.5165 0001605 100.7862 259.3319 15.30173196111733
STARLINK-31239          
1 60093U 24117C   26165.68889108 -.00000968  00000+0 -20547-4 0  9997
2 60093  53.1616 306.8497 0001281  94.7535 265.3612 15.30202988111730
STARLINK-32007          
1 60094U 24117D   26165.83339119  .00064962  00000+0  19200-2 0  9991
2 60094  53.1607 305.9240 0001317  73.6251 131.8489 15.34354211  5752
STARLINK-32028          
1 60095U 24117E   26165.66567236  .00001448  00000+0  61010-4 0  9994
2 60095  53.1616 306.7044 0001076  85.4673 274.6450 15.30201929111738
STARLINK-32016          
1 60096U 24117F   26165.68466542 -.00000396  00000+0 -12598-5 0  9996
2 60096  53.1616 306.8233 0001194 103.9432 256.1702 15.30206972111738
STARLINK-32003          
1 60097U 24117G   26165.65197196 -.00002696  00000+0 -78968-4 0  9997
2 60097  53.1621 306.6145 0001341 100.6685 259.4466 15.30180288111737
STARLINK-32026          
1 60098U 24117H   26165.85738657  .00007295  00000+0  25818-3 0  9996
2 60098  53.1630 305.7655 0001144  73.9469 286.1658 15.30201188111763
STARLINK-31732          
1 60099U 24117J   26165.69401472  .00003413  00000+0  12716-3 0  9992
2 60099  53.1608 306.1659 0000882 102.9368 257.1731 15.30236340111743
STARLINK-31996          
1 60100U 24117K   26165.64245573 -.00003336  00000+0 -10053-3 0  9996
2 60100  53.1631 306.5555 0001459  90.6407 269.4761 15.30203072111733
STARLINK-31999          
1 60101U 24117L   26165.68783877 -.00000157  00000+0  68299-5 0  9999
2 60101  53.1619 306.8404 0001198  73.9895 286.1238 15.30198162111739
STARLINK-31954          
1 60102U 24117M   26165.68149781 -.00001035  00000+0 -22819-4 0  9994
2 60102  53.1617 306.8045 0000953  97.5824 262.5285 15.30219196111732
STARLINK-32013          
1 60103U 24117N   26165.67832735  .00000483  00000+0  28438-4 0  9999
2 60103  53.1617 306.7833 0001293  95.1239 264.9909 15.30213811111736
STARLINK-32009          
1 60104U 24117P   26165.69099471 -.00000064  00000+0  99601-5 0  9991
2 60104  53.1618 306.8351 0001006  89.6409 270.4707 15.30211604111739
