OBJECT_NAME,OBJECT_ID,EPOCH,MEAN_MOTION,ECCENTRICITY,INCLINATION,RA_OF_ASC_NODE,ARG_OF_PERICENTER,MEAN_ANOMALY,EPHEMERIS_TYPE,CLASSIFICATION_TYPE,NORAD_CAT_ID,ELEMENT_SET_NO,REV_AT_EPOCH,BSTAR,MEAN_MOTION_DOT,MEAN_MOTION_DDOT
STARLINK-31825,2024-112U,2026-06-14T05:23:11.808672,15.30194916,.000111,53.1618,349.8055,87.9611,272.1517,0,U,60056,999,11337,-.32814E-4,-.1331E-4,0
STARLINK-31437,2024-112V,2026-06-14T19:38:47.520384,15.30211193,.0001274,53.1602,347.1180,136.4353,223.6749,0,U,60057,999,11346,-.97071E-4,-.3234E-4,0
STARLINK-11181 [DTC],2024-113A,2026-06-14T01:09:31.635648,15.69698938,.0001314,53.1602,76.3324,91.5911,268.5257,0,U,60059,999,11469,.36696964E-4,.3857E-4,0
STARLINK-11176 [DTC],2024-113B,2026-06-14T01:02:27.160224,15.69717620,.00011397,53.1601,76.2957,72.4948,287.6195,0,U,60060,999,11469,.14085582E-4,.1118E-4,0
STARLINK-11167 [DTC],2024-113C,2026-06-13T23:23:43.152000,15.69707796,.00011034,53.1597,76.5801,82.4562,277.6581,0,U,60061,999,11498,-.537827E-5,-.124E-4,0
STARLINK-11166 [DTC],2024-113D,2026-06-14T11:30:03.966912,15.69750309,.00014341,53.1599,74.0359,96.4809,263.6372,0,U,60062,999,11476,.3921171E-4,.4171E-4,0
STARLINK-11165 [DTC],2024-113E,2026-06-14T00:41:15.957888,15.69686609,.00007754,53.1578,76.2014,61.4478,298.6618,0,U,60063,999,11469,-.7380619E-4,-.951E-4,0
STARLINK-11169 [DTC],2024-113F,2026-06-14T00:34:12.527040,15.69703734,.00009375,53.1590,76.1664,103.9239,256.1883,0,U,60064,999,11469,.363898E-6,-.544E-5,0
STARLINK-11102 [DTC],2024-113G,2026-06-14T00:27:08.487072,15.69719006,.00012837,53.1590,76.1343,131.6091,228.5037,0,U,60065,999,11469,-.24166291E-4,-.3516E-4,0
STARLINK-11141 [DTC],2024-113H,2026-06-14T11:01:51.328704,15.69717110,.00010499,53.1590,73.9025,87.4480,272.6658,0,U,60066,999,11476,.15267597E-4,.1262E-4,0
STARLINK-11153 [DTC],2024-113J,2026-06-14T10:54:55.463040,15.69724248,.00011241,53.1594,74.6020,72.8438,287.2703,0,U,60067,999,11475,.11192962E-4,.768E-5,0
STARLINK-11170 [DTC],2024-113K,2026-06-14T10:47:52.584288,15.69715815,.00010861,53.1589,74.5711,77.8327,282.2813,0,U,60068,999,11475,.1341305E-4,.1037E-4,0
STARLINK-11171 [DTC],2024-113L,2026-06-14T10:40:49.232064,15.69715658,.00011067,53.1584,74.5416,117.9033,242.2097,0,U,60069,999,11475,.79491885E-4,.9054E-4,0
STARLINK-11186 [DTC],2024-113M,2026-06-14T01:23:38.995872,15.69713191,.0001184,53.1604,76.3930,82.3553,277.7599,0,U,60070,999,11510,.10864419E-4,.728E-5,0
STARLINK-11184 [DTC],2024-113N,2026-06-14T01:16:37.113312,15.69683418,.00007853,53.1586,76.3960,79.3032,280.8075,0,U,60071,999,11469,-.33964547E-4,-.4696E-4,0
STARLINK-32032,2024-113U,2026-06-14T13:22:02.266752,15.34414270,.0001051,53.1603,267.5576,86.9653,273.1470,0,U,60077,999,11208,.49711522E-4,.1304E-4,0
STARLINK-31441,2024-117A,2026-06-14T15:44:53.099232,15.30232808,.0001071,53.1619,306.6448,61.2862,298.8246,0,U,60091,999,11173,-.19407E-3,-.6108E-4,0
STARLINK-32044,2024-117B,2026-06-14T15:16:01.936128,15.30173196,.0001605,53.1615,306.5165,100.7862,259.3319,0,U,60092,999,11173,.19266E-3,.5346E-4,0
STARLINK-31239,2024-117C,2026-06-14T16:32:00.189312,15.30202988,.0001281,53.1616,306.8497,94.7535,265.3612,0,U,60093,999,11173,-.20547E-4,-.968E-5,0
STARLINK-32007,2024-117D,2026-06-14T20:00:04.998816,15.34354211,.0001317,53.1607,305.9240,73.6251,131.8489,0,U,60094,999,575,.192E-2,.64962E-3,0
STARLINK-32028,2024-117E,2026-06-14T15:58:34.091904,15.30201929,.0001076,53.1616,306.7044,85.4673,274.6450,0,U,60095,999,11173,.6101E-4,.1448E-4,0
STARLINK-32016,2024-117F,2026-06-14T16:25:55.092288,15.30206972,.0001194,53.1616,306.8233,103.9432,256.1702,0,U,60096,999,11173,-.12598E-5,-.396E-5,0
STARLINK-32003,2024-117G,2026-06-14T15:38:50.377344,15.30180288,.0001341,53.1621,306.6145,100.6685,259.4466,0,U,60097,999,11173,-.78968E-4,-.2696E-4,0
STARLINK-32026,2024-117H,2026-06-14T20:34:38.199648,15.30201188,.0001144,53.1630,305.7655,73.9469,286.1658,0,U,60098,999,11176,.25818E-3,.7295E-4,0
STARLINK-31732,2024-117J,2026-06-14T16:39:22.871808,15.30236340,.0000882,53.1608,306.1659,102.9368,257.1731,0,U,60099,999,11174,.12716E-3,.3413E-4,0
STARLINK-31996,2024-117K,2026-06-14T15:25:08.175072,15.30203072,.0001459,53.1631,306.5555,90.6407,269.4761,0,U,60100,999,11173,-.10053E-3,-.3336E-4,0
STARLINK-31999,2024-117L,2026-06-14T16:30:29.269728,15.30198162,.0001198,53.1619,306.8404,73.9895,286.1238,0,U,60101,999,11173,.68299E-5,-.157E-5,0
STARLINK-31954,2024-117M,2026-06-14T16:21:21.410784,15.30219196,.0000953,53.1617,306.8045,97.5824,262.5285,0,U,60102,999,11173,-.22819E-4,-.1035E-4,0
STARLINK-32013,2024-117N,2026-06-14T16:16:47.483040,15.30213811,.0001293,53.1617,306.7833,95.1239,264.9909,0,U,60103,999,11173,.28438E-4,.483E-5,0
STARLINK-32009,2024-117P,2026-06-14T16:35:01.942944,15.30211604,.0001006,53.1618,306.8351,89.6409,270.4707,0,U,60104,999,11173,.99601E-5,-.64E-6,0
